[{"OBJECT_NAME":"STARLINK-1452","OBJECT_ID":"2020-035N","EPOCH":"2026-03-09T03:54:47.994336","MEAN_MOTION":15.44914586,"ECCENTRICITY":0.00080076,"INCLINATION":53.0334,"RA_OF_ASC_NODE":24.2429,"ARG_OF_PERICENTER":52.8149,"MEAN_ANOMALY":307.3586,"EPHEMERIS_TYPE":0,"CLASSIFICATION_TYPE":"U","NORAD_CAT_ID":45669,"ELEMENT_SET_NO":999,"REV_AT_EPOCH":31928,"BSTAR":0.0019010434,"MEAN_MOTION_DOT":0.0009155,"MEAN_MOTION_DDOT":0},{"OBJECT_NAME":"STARLINK-31530","OBJECT_ID":"2024-057C","EPOCH":"2026-03-09T22:00:01.999584","MEAN_MOTION":15.40184743,"ECCENTRICITY":0.00128486,"INCLINATION":42.9973,"RA_OF_ASC_NODE":183.7666,"ARG_OF_PERICENTER":5.4945,"MEAN_ANOMALY":123.5141,"EPHEMERIS_TYPE":0,"CLASSIFICATION_TYPE":"U","NORAD_CAT_ID":59322,"ELEMENT_SET_NO":999,"REV_AT_EPOCH":587,"BSTAR":0.0037392027,"MEAN_MOTION_DOT":0.00156829,"MEAN_MOTION_DDOT":0}]
